H1 CPF  1  HTS 2022  1 22 12  5221 larets           NONE
H2  0304206 5557    27944 2022 01 22  0  0  0 2022 01 27  0  0  0   180 1 1  0 0 0
H5  0.0560 
H9 
10 0 59603  46440.00000  0    4775334.855     678907.301   -5177175.328
10 0 59603  46620.00000  0    3780964.112     204383.119   -5976687.806
10 0 59603  46800.00000  0    2638049.230    -249457.521   -6559082.143
10 0 59603  46980.00000  0    1388660.524    -662903.273   -6903318.407
10 0 59603  47160.00000  0      79123.954   -1018864.273   -6996904.205
10 0 59603  47340.00000  0   -1241666.156   -1303555.147   -6836317.323
10 0 59603  47520.00000  0   -2524029.649   -1507018.821   -6427141.326
10 0 59603  47700.00000  0   -3719331.123   -1623477.110   -5783910.025
10 0 59603  47880.00000  0   -4781805.878   -1651497.130   -4929662.096
10 0 59603  48060.00000  0   -5670334.135   -1593967.443   -3895199.642
10 0 59603  48240.00000  0   -6350090.013   -1457879.158   -2718050.192
10 0 59603  48420.00000  0   -6793991.847   -1253916.581   -1441149.509
10 0 59603  48600.00000  0   -6983874.074    -995870.443    -111280.621
10 0 59603  48780.00000  0   -6911310.171    -699897.392    1222675.398
10 0 59603  48960.00000  0   -6578028.515    -383662.751    2511599.216
10 0 59603  49140.00000  0   -5995893.167     -65415.350    3708016.080
10 0 59603  49320.00000  0   -5186446.506     236957.582    4767911.008
10 0 59603  49500.00000  0   -4180041.329     506841.088    5652386.541
10 0 59603  49680.00000  0   -3014621.925     729722.351    6329094.032
10 0 59603  49860.00000  0   -1734217.818     893898.320    6773395.645
10 0 59603  50040.00000  0    -387219.468     991031.461    6969222.038
10 0 59603  50220.00000  0     975485.743    1016533.030    6909605.708
10 0 59603  50400.00000  0    2302446.053     969760.483    6596894.083
10 0 59603  50580.00000  0    3543588.432     854024.991    6042644.849
10 0 59603  50760.00000  0    4652112.745     676408.979    5267205.975
10 0 59603  50940.00000  0    5586270.808     447401.159    4298988.087
10 0 59603  51120.00000  0    6310970.842     180362.780    3173447.841
10 0 59603  51300.00000  0    6799139.199    -109148.759    1931798.231
10 0 59603  51480.00000  0    7032771.025    -404173.314     619492.664
10 0 59603  51660.00000  0    7003623.250    -687217.549    -715461.173
10 0 59603  51840.00000  0    6713509.168    -941156.798   -2024293.157
10 0 59603  52020.00000  0    6174176.982   -1150123.130   -3259284.735
10 0 59603  52200.00000  0    5406786.102   -1300332.844   -4375523.615
10 0 59603  52380.00000  0    4441016.623   -1380811.157   -5332526.486
10 0 59603  52560.00000  0    3313865.687   -1383981.394   -6095670.483
10 0 59603  52740.00000  0    2068191.329   -1306096.497   -6637388.952
10 0 59603  52920.00000  0     751073.114   -1147492.414   -6938103.742
10 0 59603  53100.00000  0    -587949.207    -912659.159   -6986880.910
10 0 59603  53280.00000  0   -1898701.353    -610127.314   -6781802.702
10 0 59603  53460.00000  0   -3132213.606    -252170.622   -6330052.000
10 0 59603  53640.00000  0   -4242519.133     145668.136   -5647704.275
10 0 59603  53820.00000  0   -5188366.073     565215.303   -4759230.572
10 0 59603  54000.00000  0   -5934788.955     986450.112   -3696702.803
10 0 59603  54180.00000  0   -6454477.227    1388410.904   -2498706.757
10 0 59603  54360.00000  0   -6728869.598    1750184.667   -1208978.668
10 0 59603  54540.00000  0   -6748912.644    2051932.492     125193.805
10 0 59603  54720.00000  0   -6515428.079    2275896.130    1454749.225
10 0 59603  54900.00000  0   -6039057.637    2407331.440    2730722.578
10 0 59603  55080.00000  0   -5339785.341    2435317.201    3906122.387
10 0 59603  55260.00000  0   -4446059.969    2353389.146    4937723.191
10 0 59603  55440.00000  0   -3393571.947    2159968.416    5787686.111
10 0 59603  55620.00000  0   -2223758.849    1858568.578    6424947.763
10 0 59603  55800.00000  0    -982108.198    1457772.037    6826331.859
10 0 59603  55980.00000  0     283658.067     970977.931    6977345.525
10 0 59603  56160.00000  0    1525435.746     415937.572    6872655.652
10 0 59603  56340.00000  0    2696568.500    -185904.086    6516247.354
10 0 59603  56520.00000  0    3753599.280    -810240.333    5921265.701
10 0 59603  56700.00000  0    4657889.869   -1430880.982    5109541.590
10 0 59603  56880.00000  0    5377050.566   -2020843.106    4110810.915
10 0 59603  57060.00000  0    5886130.938   -2553511.495    2961646.532
10 0 59603  57240.00000  0    6168519.838   -3003821.988    1704125.453
10 0 59603  57420.00000  0    6216509.092   -3349411.077     384279.163
10 0 59603  57600.00000  0    6031495.625   -3571675.652    -949616.969
10 0 59603  57780.00000  0    5623806.880   -3656686.344   -2248845.228
10 0 59603  57960.00000  0    5012157.632   -3595905.768   -3466055.412
10 0 59603  58140.00000  0    4222775.545   -3386680.413   -4557001.241
10 0 59603  58320.00000  0    3288243.775   -3032485.122   -5482134.922
10 0 59603  58500.00000  0    2246124.522   -2542911.076   -6207998.168
10 0 59603  58680.00000  0    1137438.316   -1933409.532   -6708371.279
10 0 59603  58860.00000  0       5056.800   -1224800.661   -6965162.958
10 0 59603  59040.00000  0   -1107931.323    -442566.078   -6969014.543
10 0 59603  59220.00000  0   -2159823.910     384046.689   -6719619.143
10 0 59603  59400.00000  0   -3111836.595    1223087.285   -6225753.452
10 0 59603  59580.00000  0   -3929516.335    2041104.622   -5505020.640
10 0 59603  59760.00000  0   -4584003.647    2804457.104   -4583302.775
10 0 59603  59940.00000  0   -5053097.693    3480691.286   -3493910.491
10 0 59603  60120.00000  0   -5322072.143    4039931.200   -2276442.507
10 0 59603  60300.00000  0   -5384202.330    4456218.735    -975379.605
10 0 59603  60480.00000  0   -5240967.745    4708734.251     361548.020
10 0 59603  60660.00000  0   -4901906.574    4782829.187    1685158.915
10 0 59603  60840.00000  0   -4384117.429    4670803.268    2946702.499
10 0 59603  61020.00000  0   -3711431.363    4372382.373    4099727.505
10 0 59603  61200.00000  0   -2913304.738    3894873.039    5101847.319
10 0 59603  61380.00000  0   -2023497.156    3252987.750    5916326.676
10 0 59603  61560.00000  0   -1078602.039    2468353.746    6513424.768
10 0 59603  61740.00000  0    -116507.326    1568734.693    6871446.943
10 0 59603  61920.00000  0     825139.043     587008.289    6977485.967
10 0 59603  62100.00000  0    1710406.413    -440059.580    6827845.863
10 0 59603  62280.00000  0    2506449.517   -1473201.274    6428145.523
10 0 59603  62460.00000  0    3184725.192   -2472152.058    5793104.274
10 0 59603  62640.00000  0    3722021.472   -3397222.871    4946012.948
10 0 59603  62820.00000  0    4101261.911   -4210885.967    3917900.605
10 0 59603  63000.00000  0    4312057.231   -4879313.679    2746416.055
10 0 59603  63180.00000  0    4350979.642   -5373803.746    1474453.445
10 0 59603  63360.00000  0    4221545.374   -5672021.789     148567.744
10 0 59603  63540.00000  0    3933904.802   -5758997.459   -1182755.802
10 0 59603  63720.00000  0    3504258.476   -5627827.489   -2470907.945
10 0 59603  63900.00000  0    2954025.730   -5280045.474   -3668958.701
10 0 59603  64080.00000  0    2308813.677   -4725644.452   -4733377.403
10 0 59603  64260.00000  0    1597239.822   -3982756.281   -5625596.385
10 0 59603  64440.00000  0     849676.432   -3077013.766   -6313360.912
10 0 59603  64620.00000  0      96972.832   -2040635.986   -6771833.350
10 0 59603  64800.00000  0    -630794.087    -911272.714   -6984429.571
10 0 59603  64980.00000  0   -1305491.943     269349.381   -6943373.807
10 0 59603  65160.00000  0   -1901995.209    1456933.629   -6649967.661
10 0 59603  65340.00000  0   -2399106.837    2606232.887   -6114571.633
10 0 59603  65520.00000  0   -2780312.902    3672741.561   -5356298.761
10 0 59603  65700.00000  0   -3034349.311    4614415.223   -4402412.914
10 0 59603  65880.00000  0   -3155557.202    5393357.056   -3287424.992
10 0 59603  66060.00000  0   -3144002.943    5977394.326   -2051900.053
10 0 59603  66240.00000  0   -3005355.356    6341477.100    -741010.313
10 0 59603  66420.00000  0   -2750516.280    6468820.601     597130.312
10 0 59603  66600.00000  0   -2395021.429    6351723.527    1913281.054
10 0 59603  66780.00000  0   -1958227.559    5991999.913    3158966.649
10 0 59603  66960.00000  0   -1462333.488    5400990.759    4288333.479
10 0 59603  67140.00000  0    -931297.672    4599171.409    5259886.285
10 0 59603  67320.00000  0    -389704.160    3615375.766    6038034.777
10 0 59603  67500.00000  0     138360.828    2485684.827    6594385.539
10 0 59603  67680.00000  0     630366.360    1252037.625    6908743.299
10 0 59603  67860.00000  0    1066286.560     -39371.180    6969799.041
10 0 59603  68040.00000  0    1429406.092   -1339842.749    6775496.708
10 0 59603  68220.00000  0    1706954.971   -2600017.804    6333082.208
10 0 59603  68400.00000  0    1890553.773   -3771755.262    5658832.095
10 0 59603  68580.00000  0    1976454.985   -4809981.297    4777466.265
10 0 59603  68760.00000  0    1965576.201   -5674439.663    3721262.323
10 0 59603  68940.00000  0    1863327.079   -6331286.367    2528892.114
10 0 59603  69120.00000  0    1679230.736   -6754451.139    1244006.574
10 0 59603  69300.00000  0    1426362.422   -6926703.242     -86373.274
10 0 59603  69480.00000  0    1120628.428   -6840373.518   -1413605.340
10 0 59603  69660.00000  0     779918.595   -6497680.299   -2689246.298
10 0 59603  69840.00000  0     423183.390   -5910640.921   -3866844.772
10 0 59603  70020.00000  0      69488.060   -5100593.449   -4903635.470
10 0 59603  70200.00000  0    -262914.429   -4097356.270   -5762068.004
10 0 59603  70380.00000  0    -557445.680   -2938076.795   -6411117.542
10 0 59603  70560.00000  0    -799961.159   -1665825.116   -6827343.866
10 0 59603  70740.00000  0    -979378.336    -327993.363   -6995677.452
99
